TDRS 3                  
1 19548U 88091B   25110.02301370 -.00000292  00000+0  00000+0 0  9990
2 19548  12.9267 343.8163 0038756 346.9185 196.7955  1.00280438121124
HST                     
1 20580U 90037B   25110.12898456  .00010160  00000+0  39258-3 0  9993
2 20580  28.4676  78.2549 0002049 167.9886 192.0757 15.24538580724077
TDRS 5                  
1 21639U 91054B   25109.49077152  .00000095  00000+0  00000+0 0  9994
2 21639  14.1229 356.8860 0003730  28.3423 221.3286  0.99954482123463
TDRS 6                  
1 22314U 93003B   25110.07683595 -.00000288  00000+0  00000+0 0  9996
2 22314  14.1730   0.1750 0007322 168.6460  21.3951  1.00273922118139
TDRS 7                  
1 23613U 95035B   25109.93471845 -.00000194  00000+0  00000+0 0  9998
2 23613  13.5539 351.1026 0027933  70.1269 208.2699  1.00276988108905
ISS (ZARYA)             
1 25544U 98067A   25110.50028097  .00017732  00000+0  32069-3 0  9992
2 25544  51.6382 232.7555 0005493  61.8645  30.8411 15.49747823506218
TERRA                   
1 25994U 99068A   25110.48571943  .00000910  00000+0  19615-3 0  9995
2 25994  98.0028 170.3979 0003633 112.5667 305.9700 14.60635640348012
TDRS 8                  
1 26388U 00034A   25110.49496375  .00000103  00000+0  00000+0 0  9992
2 26388  12.0255  34.7837 0004911 268.9781 275.7304  1.00266126 90935
TIMED                   
1 26998U 01055B   25110.15957539  .00002759  00000+0  26377-3 0  9998
2 26998  74.0717   5.7799 0002090 270.9738  89.1206 14.93777191267769
AQUA                    
1 27424U 02022A   25110.49190655  .00001925  00000+0  40090-3 0  9995
2 27424  98.3731  68.1378 0001092 108.6371   1.6953 14.61156736221563
TDRS 10                 
1 27566U 02055A   25109.86911168 -.00000144  00000+0  00000+0 0  9993
2 27566   9.7338  48.1881 0008135 285.1092  82.2818  1.00672375 81999
SORCE                   
1 27651U 03004A   25110.52233203  .00005151  00000+0  41584-3 0  9993
2 27651  39.9905 146.6196 0019440 253.3223 106.5436 15.00098474208350
AURA                    
1 28376U 04026A   25110.16952010  .00001909  00000+0  40511-3 0  9993
2 28376  98.2898  59.8909 0001365  92.8429 267.2927 14.60297757104492
SWIFT                   
1 28485U 04047A   25110.11937929  .00031598  00000+0  85363-3 0  9995
2 28485  20.5537 118.3234 0005582 327.3552  32.6542 15.35879787121297
THEMIS A                
1 30580U 07004A   25109.71534628 -.00000083  00000+0  00000+0 0  9990
2 30580   4.9867 228.2998 8453153  31.3889 358.1508  0.87837867 62241
THEMIS D                
1 30797U 07004D   25109.68392190 -.00000048  00000+0  00000+0 0  9993
2 30797   0.7696 155.2451 8420156 108.5268 337.1019  0.87835793 37346
THEMIS E                
1 30798U 07004E   25109.61536772 -.00000067  00000+0  00000+0 0  9994
2 30798   2.5508 269.5929 8413001 354.9683 328.1139  0.87836816 62187
FGRST (GLAST)           
1 33053U 08029A   25109.79553944  .00005446  00000+0  22529-3 0  9997
2 33053  25.5819 257.1351 0009449  27.6038 332.5000 15.20829824931245
TDRS 11                 
1 39070U 13004A   25110.22907130  .00000087  00000+0  00000+0 0  9993
2 39070   2.9794  21.7231 0005025  25.1561  69.9844  1.00279274 44741
TDRS 12                 
1 39504U 14004A   25110.16748273 -.00000264  00000+0  00000+0 0  9998
2 39504   3.6473  10.7099 0002056 227.6302 349.2298  1.00280110 41204
GPM-CORE                
1 39574U 14009C   25110.52631365  .00013306  00000+0  28521-3 0  9995
2 39574  64.9771 283.9292 0009622 259.7511 100.2545 15.44981246632549
MMS 1                   
1 40482U 15011A   25110.50001157 -.00000823  00000+0  00000+0 0  9996
2 40482  62.6665 356.8452 8773399 158.0356 294.5731  0.28425821 16244
MMS 2                   
1 40483U 15011B   25110.50001157 -.00000823  00000+0  00000+0 0  9997
2 40483  62.6343 356.8628 8772197 158.0131 294.5816  0.28410780 16229
MMS 3                   
1 40484U 15011C   25110.50001157 -.00000822  00000+0  00000+0 0  9997
2 40484  62.6664 356.8480 8771025 158.0293 294.5479  0.28425784 16225
MMS 4                   
1 40485U 15011D   25110.50001157 -.00000822  00000+0  00000+0 0  9998
2 40485  62.6409 356.8540 8772205 158.0130 285.0838  0.28432575 16221
TDRS 13                 
1 42915U 17047A   25109.88779095 -.00000096  00000+0  00000+0 0  9994
2 42915   3.4666 351.8574 0014420 103.8303  60.5842  1.00271571 28100
NOAA 20 (JPSS-1)        
1 43013U 17073A   25110.44222536  .00000172  00000+0  10249-3 0  9994
2 43013  98.7385  49.6722 0002234  79.6599 280.4829 14.19527671384493
